YOTSUBA-KULOVER         
1 65941U 98067XN  26065.22636982  .00207091  00000+0  11219-2 0  9996
2 65941  51.6209  75.2348 0005861  46.1481 314.0003 15.78891358 22957
E-KAGAKU-1              
1 65943U 98067XQ  26065.29341579  .00203884  00000+0  11184-2 0  9997
2 65943  51.6235  74.9503 0006176  51.7621 308.3935 15.78621403 22968
HRC MONOBLOCK CAMERA    
1 66052U 98067XR  26065.37348952  .00054605  00000+0  62035-3 0  9997
2 66052  51.6273  82.2641 0003540  77.2259 282.9130 15.61775816 21872
HTV-X1                  
1 66174U 25241A   26065.54469341  .00009332  00000+0  18044-3 0  9999
2 66174  51.6317  87.9051 0008117 163.3368 196.7888 15.48477653554478
SZ-21 MODULE            
1 66515U 25246C   26065.50767940  .00041950  00000+0  36494-3 0  9996
2 66515  41.4735 222.9439 0001433 292.6372  67.4317 15.68252686 17579
SHENZHOU-22             
1 66645U 25272A   26065.83578792  .00025906  00000+0  30829-3 0  9999
2 66645  41.4663 225.5243 0006950 255.9346 104.0720 15.60495557268759
SOYUZ-MS 28             
1 66664U 25275A   26065.54469341  .00009332  00000+0  18044-3 0  9990
2 66664  51.6317  87.9051 0008117 163.3368 196.7888 15.48477653554528
DUPLEX                  
1 66906U 98067XS  26065.43931271  .00032127  00000+0  45868-3 0  9994
2 66906  51.6289  85.7046 0002177  98.7594 261.3644 15.55966204 14621
ISS OBJECT XT           
1 66907U 98067XT  26065.27003484  .00153072  00000+0  13312-2 0  9994
2 66907  51.6248  83.0631 0004674  56.5604 303.5839 15.68035860 14642
ISS OBJECT XU           
1 66908U 98067XU  26065.33220126  .00152767  00000+0  13221-2 0  9995
2 66908  51.6249  82.7244 0004715  58.9313 301.2145 15.68155385 14650
SILVERSAT               
1 66909U 98067XV  26065.27564600  .00189452  00000+0  14661-2 0  9997
2 66909  51.6242  82.3461 0005530  54.5981 305.5533 15.70734240 14654
ISS OBJECT XW           
1 66910U 98067XW  26065.45484626  .00136808  00000+0  12172-2 0  9990
2 66910  51.6239  82.0383 0005009  67.5902 292.5625 15.67532901 14675
